NORAD_CAT_ID,OBJECT_NAME,OBJECT_TYPE,EPOCH,MEAN_MOTION,ECCENTRICITY,INCLINATION,RA_OF_ASC_NODE,ARG_OF_PERICENTER,MEAN_ANOMALY,BSTAR,MEAN_MOTION_DOT,MEAN_MOTION_DDOT,TLE_LINE0,TLE_LINE1,TLE_LINE2,SEMIMAJOR_AXIS,PERIOD,APOGEE,PERIGEE,DECAYED
51972.0,STARLINK-3671,PAYLOAD,2023-12-24 08:56:58,15.06403078,0.0001607,53.055,50.5803,90.9559,269.1614,0.00010277,1.25e-05,0.0,0 STARLINK-3671,1 51972U 22025S   23358.37290326  .00001250  00000-0  10277-3 0  9996,2 51972  53.0550  50.5803 0001607  90.9559 269.1614 15.06403078100493,6925.339,95.592,548.317,546.091,0.0
51972.0,STARLINK-3671,PAYLOAD,2023-12-25 04:03:27,15.06395371,0.0002393,53.0563,47.011,22.697,337.4125,7.6135e-05,8.52e-06,0.0,0 STARLINK-3671,1 51972U 22025S   23359.16907397  .00000852  00000-0  76135-4 0  9990,2 51972  53.0563  47.0110 0002393  22.6970 337.4125 15.06395371100617,6925.363,95.592,548.885,545.571,0.0
51972.0,STARLINK-3671,PAYLOAD,2023-12-25 13:36:41,15.06403236,0.0001407,53.0564,45.2141,92.4519,267.6631,2.962e-05,1.6e-06,0.0,0 STARLINK-3671,1 51972U 22025S   23359.56714706  .00000160  00000-0  29620-4 0  9993,2 51972  53.0564  45.2141 0001407  92.4519 267.6631 15.06403236 99579,6925.339,95.592,548.178,546.229,0.0
51972.0,STARLINK-3671,PAYLOAD,2023-12-26 03:56:33,15.06389484,0.000102,53.0539,42.5298,90.5571,269.5535,1.1782e-05,-1.06e-06,0.0,0 STARLINK-3671,1 51972U 22025S   23360.16427874 -.00000106  00000-0  11782-4 0  9999,2 51972  53.0539  42.5298 0001020  90.5571 269.5535 15.06389484100768,6925.381,95.593,547.952,546.539,0.0
51972.0,STARLINK-3671,PAYLOAD,2023-12-26 11:54:15,15.06401576,0.0001643,53.0566,41.0505,100.6867,259.4307,2.5771e-05,1.02e-06,0.0,0 STARLINK-3671,1 51972U 22025S   23360.49600744  .00000102  00000-0  25771-4 0  9992,2 51972  53.0566  41.0505 0001643 100.6867 259.4307 15.06401576100813,6925.344,95.592,548.347,546.071,0.0
51972.0,STARLINK-3671,PAYLOAD,2023-12-27 11:47:20,15.06401341,0.0001543,53.0568,36.5783,93.4804,266.6361,8.1115e-05,9.27e-06,0.0,0 STARLINK-3671,1 51972U 22025S   23361.49121007  .00000927  00000-0  81115-4 0  9992,2 51972  53.0568  36.5783 0001543  93.4804 266.6361 15.06401341 99863,6925.344,95.592,548.278,546.141,0.0
51972.0,STARLINK-3671,PAYLOAD,2023-12-28 11:40:27,15.06391625,0.0001698,53.0575,32.1122,88.9763,271.1421,2.7806e-05,1.33e-06,0.0,0 STARLINK-3671,1 51972U 22025S   23362.48642556  .00000133  00000-0  27806-4 0  9995,2 51972  53.0575  32.1122 0001698  88.9763 271.1421 15.06391625101117,6925.374,95.593,548.415,546.063,0.0
51972.0,STARLINK-3671,PAYLOAD,2023-12-29 11:33:30,15.06415161,0.0001581,53.0565,27.6435,103.6039,256.5126,0.00012848,1.633e-05,0.0,0 STARLINK-3671,1 51972U 22025S   23363.48160823  .00001633  00000-0  12848-3 0  9993,2 51972  53.0565  27.6435 0001581 103.6039 256.5126 15.06415161101261,6925.302,95.591,548.262,546.072,0.0
51972.0,STARLINK-3671,PAYLOAD,2023-12-30 08:15:32,15.06400011,0.0001501,53.0567,23.7737,92.0619,268.0542,4.671e-05,4.14e-06,0.0,0 STARLINK-3671,1 51972U 22025S   23364.34412983  .00000414  00000-0  46710-4 0  9998,2 51972  53.0567  23.7737 0001501  92.0619 268.0542 15.06400011101394,6925.349,95.592,548.253,546.174,0.0
51972.0,STARLINK-3671,PAYLOAD,2023-12-31 11:19:43,15.06406264,0.0001797,53.057,18.7088,111.877,248.241,-0.00014316,-2.414e-05,0.0,0 STARLINK-3671,1 51972U 22025S   23365.47202650 -.00002414  00000-0 -14316-3 0  9991,2 51972  53.0570  18.7088 0001797 111.8770 248.2410 15.06406264101565,6925.329,95.592,548.439,545.95,0.0
51972.0,STARLINK-3671,PAYLOAD,2024-01-01 09:37:16,15.06399919,0.0001558,53.0564,14.5392,99.7347,260.3818,1.064e-05,-1.23e-06,0.0,0 STARLINK-3671,1 51972U 22025S   24001.40088457 -.00000123  00000-0  10640-4 0  9990,2 51972  53.0564  14.5392 0001558  99.7347 260.3818 15.06399919101700,6925.349,95.592,548.293,546.135,0.0
51972.0,STARLINK-3671,PAYLOAD,2024-01-02 07:54:49,15.06401651,0.0001462,53.056,10.3704,87.4897,272.6259,0.00010746,1.32e-05,0.0,0 STARLINK-3671,1 51972U 22025S   24002.32973939  .00001320  00000-0  10746-3 0  9995,2 51972  53.0560  10.3704 0001462  87.4897 272.6259 15.06401651100740,6925.343,95.592,548.221,546.196,0.0
51972.0,STARLINK-3671,PAYLOAD,2024-01-03 06:12:23,15.06392366,0.0001486,53.0559,6.2016,80.5067,279.609,0.00012023,1.509e-05,0.0,0 STARLINK-3671,1 51972U 22025S   24003.25860164  .00001509  00000-0  12023-3 0  9992,2 51972  53.0559   6.2016 0001486  80.5067 279.6090 15.06392366101986,6925.372,95.593,548.266,546.208,0.0
51972.0,STARLINK-3671,PAYLOAD,2024-01-04 06:05:28,15.06402328,0.0001532,53.0556,1.7343,76.7159,283.4,4.7652e-05,4.28e-06,0.0,0 STARLINK-3671,1 51972U 22025S   24004.25379974  .00000428  00000-0  47652-4 0  9993,2 51972  53.0556   1.7343 0001532  76.7159 283.4000 15.06402328102139,6925.341,95.592,548.267,546.145,0.0
51972.0,STARLINK-3671,PAYLOAD,2024-01-05 05:58:33,15.0640118,0.0001433,53.0554,357.2664,93.9622,266.1531,8.0716e-05,9.21e-06,0.0,0 STARLINK-3671,1 51972U 22025S   24005.24899996  .00000921  00000-0  80716-4 0  9990,2 51972  53.0554 357.2664 0001433  93.9622 266.1531 15.06401180101184,6925.345,95.592,548.202,546.218,0.0
51972.0,STARLINK-3671,PAYLOAD,2024-01-06 04:16:07,15.06397293,0.0001438,53.0557,353.0962,97.6278,262.4874,3.3651e-06,-2.31e-06,0.0,0 STARLINK-3671,1 51972U 22025S   24006.17786029 -.00000231  00000-0  33651-5 0  9997,2 51972  53.0557 353.0962 0001438  97.6278 262.4874 15.06397293102421,6925.357,95.592,548.218,546.226,0.0
51972.0,STARLINK-3671,PAYLOAD,2024-01-07 04:09:12,15.06395501,0.000143,53.0561,348.6284,93.9881,266.1271,-1.2898e-05,-4.74e-06,0.0,0 STARLINK-3671,1 51972U 22025S   24007.17306659 -.00000474  00000-0 -12898-4 0  9994,2 51972  53.0561 348.6284 0001430  93.9881 266.1271 15.06395501101470,6925.362,95.592,548.218,546.237,0.0
51972.0,STARLINK-3671,PAYLOAD,2024-01-07 21:40:09,15.06393471,0.0001432,53.0563,345.3529,95.3287,264.7865,4.4129e-05,3.76e-06,0.0,0 STARLINK-3671,1 51972U 22025S   24007.90288340  .00000376  00000-0  44129-4 0  9992,2 51972  53.0563 345.3529 0001432  95.3287 264.7865 15.06393471101585,6925.369,95.593,548.225,546.242,0.0
51972.0,STARLINK-3671,PAYLOAD,2024-01-08 04:02:18,15.06396756,0.0001412,53.0563,344.1608,94.6704,265.4446,6.7016e-05,7.17e-06,0.0,0 STARLINK-3671,1 51972U 22025S   24008.16826885  .00000717  00000-0  67016-4 0  9992,2 51972  53.0563 344.1608 0001412  94.6704 265.4446 15.06396756102723,6925.359,95.592,548.201,546.246,0.0
51972.0,STARLINK-3671,PAYLOAD,2024-01-08 07:13:22,15.06400029,0.0001414,53.0565,343.565,94.3787,265.7364,9.2895e-05,1.102e-05,0.0,0 STARLINK-3671,1 51972U 22025S   24008.30095986  .00001102  00000-0  92895-4 0  9990,2 51972  53.0565 343.5650 0001414  94.3787 265.7364 15.06400029101646,6925.348,95.592,548.193,546.234,0.0
51972.0,STARLINK-3671,PAYLOAD,2024-01-09 02:19:51,15.06415863,0.0001302,53.0565,339.9911,103.938,256.1754,-0.00015013,-2.518e-05,0.0,0 STARLINK-3671,1 51972U 22025S   24009.09712066 -.00002518  00000-0 -15013-3 0  9992,2 51972  53.0565 339.9911 0001302 103.9380 256.1754 15.06415863102861,6925.3,95.591,548.067,546.263,0.0
51972.0,STARLINK-3671,PAYLOAD,2024-01-09 07:06:28,15.06404086,0.0001469,53.0563,339.0969,105.1359,254.9792,0.00013526,1.734e-05,0.0,0 STARLINK-3671,1 51972U 22025S   24009.29615939  .00001734  00000-0  13526-3 0  9999,2 51972  53.0563 339.0969 0001469 105.1359 254.9792 15.06404086101791,6925.336,95.592,548.218,546.184,0.0
51972.0,STARLINK-3671,PAYLOAD,2024-01-10 03:48:29,15.06402308,0.000147,53.0562,335.2249,110.1093,250.0054,4.3917e-05,3.73e-06,0.0,0 STARLINK-3671,1 51972U 22025S   24010.15867249  .00000373  00000-0  43917-4 0  9995,2 51972  53.0562 335.2249 0001470 110.1093 250.0054 15.06402308103023,6925.341,95.592,548.225,546.188,0.0
51972.0,STARLINK-3671,PAYLOAD,2024-01-10 06:59:33,15.06405273,0.0001498,53.0562,334.6288,110.152,249.9631,6.6524e-05,7.1e-06,0.0,0 STARLINK-3671,1 51972U 22025S   24010.29136324  .00000710  00000-0  66524-4 0  9997,2 51972  53.0562 334.6288 0001498 110.1520 249.9631 15.06405273101945,6925.332,95.592,548.235,546.16,0.0
51972.0,STARLINK-3671,PAYLOAD,2024-01-11 06:52:38,15.06408902,0.0001563,53.0572,330.1553,122.2167,237.8974,5.2895e-05,5.07e-06,0.0,0 STARLINK-3671,1 51972U 22025S   24011.28656245  .00000507  00000-0  52895-4 0  9996,2 51972  53.0572 330.1553 0001563 122.2167 237.8974 15.06408902103193,6925.321,95.592,548.269,546.104,0.0
51972.0,STARLINK-3671,PAYLOAD,2024-01-11 21:12:31,15.06394402,0.0001523,53.0578,327.4733,111.3801,248.7351,-2.082e-05,-5.92e-06,0.0,0 STARLINK-3671,1 51972U 22025S   24011.88369815 -.00000592  00000-0 -20820-4 0  9995,2 51972  53.0578 327.4733 0001523 111.3801 248.7351 15.06394402102185,6925.366,95.592,548.285,546.176,0.0
51972.0,STARLINK-3671,PAYLOAD,2024-01-12 03:34:40,15.06400416,0.0001696,53.0556,326.2858,124.8192,235.2957,4.1289e-05,3.33e-06,0.0,0 STARLINK-3671,1 51972U 22025S   24012.14907923  .00000333  00000-0  41289-4 0  9996,2 51972  53.0556 326.2858 0001696 124.8192 235.2957 15.06400416103322,6925.347,95.592,548.387,546.038,0.0
51972.0,STARLINK-3671,PAYLOAD,2024-01-12 06:45:45,15.06401568,0.000161,53.0565,325.6923,109.7802,250.336,4.3206e-05,3.62e-06,0.0,0 STARLINK-3671,1 51972U 22025S   24012.28177342  .00000362  00000-0  43206-4 0  9998,2 51972  53.0565 325.6923 0001610 109.7802 250.3360 15.06401568102249,6925.344,95.592,548.324,546.094,0.0
51972.0,STARLINK-3671,PAYLOAD,2024-01-12 21:05:37,15.06394032,0.000145,53.057,323.0092,116.398,243.7158,-5.381e-05,-1.083e-05,0.0,0 STARLINK-3671,1 51972U 22025S   24012.87890513 -.00001083  00000-0 -53810-4 0  9990,2 51972  53.0570 323.0092 0001450 116.3980 243.7158 15.06394032102335,6925.367,95.593,548.236,546.228,0.0
51972.0,STARLINK-3671,PAYLOAD,2024-01-13 03:27:46,15.06396298,0.0001623,53.0571,321.8178,124.6116,235.5026,-6.5828e-06,-3.8e-06,0.0,0 STARLINK-3671,1 51972U 22025S   24013.14429015 -.00000380  00000-0 -65828-5 0  9998,2 51972  53.0571 321.8178 0001623 124.6116 235.5026 15.06396298103477,6925.36,95.592,548.349,546.101,0.0
